[{"OBJECT_NAME":"SKYKRAFT-1C","OBJECT_ID":"2023-001BE","EPOCH":"2026-03-09T17:01:49.738944","MEAN_MOTION":15.24327539,"ECCENTRICITY":0.00119736,"INCLINATION":97.3326,"RA_OF_ASC_NODE":124.5476,"ARG_OF_PERICENTER":132.0782,"MEAN_ANOMALY":228.1477,"EPHEMERIS_TYPE":0,"CLASSIFICATION_TYPE":"U","NORAD_CAT_ID":55061,"ELEMENT_SET_NO":999,"REV_AT_EPOCH":17632,"BSTAR":0.00018809338,"MEAN_MOTION_DOT":4.538e-5,"MEAN_MOTION_DDOT":0},{"OBJECT_NAME":"STARLINK-36447","OBJECT_ID":"2026-005X","EPOCH":"2026-03-09T12:50:28.129920","MEAN_MOTION":15.27590263,"ECCENTRICITY":0.0002124,"INCLINATION":43.0012,"RA_OF_ASC_NODE":238.7868,"ARG_OF_PERICENTER":286.3221,"MEAN_ANOMALY":73.7398,"EPHEMERIS_TYPE":0,"CLASSIFICATION_TYPE":"U","NORAD_CAT_ID":67425,"ELEMENT_SET_NO":999,"REV_AT_EPOCH":867,"BSTAR":0.0010776967,"MEAN_MOTION_DOT":0.00029523,"MEAN_MOTION_DDOT":0}]
